NORAD_CAT_ID,OBJECT_NAME,OBJECT_TYPE,EPOCH,MEAN_MOTION,ECCENTRICITY,INCLINATION,RA_OF_ASC_NODE,ARG_OF_PERICENTER,MEAN_ANOMALY,BSTAR,MEAN_MOTION_DOT,MEAN_MOTION_DDOT,TLE_LINE0,TLE_LINE1,TLE_LINE2,SEMIMAJOR_AXIS,PERIOD,APOGEE,PERIGEE,DECAYED
51104.0,STARLINK-3366,PAYLOAD,2022-06-08 03:59:18,15.08837299,0.000162,53.2152,321.6335,62.8307,297.285,-4.8173e-05,-1.055e-05,0.0,0 STARLINK-3366,1 51104U 22005A   22159.16619082 -.00001055  00000-0 -48173-4 0  9992,2 51104  53.2152 321.6335 0001620  62.8307 297.2850 15.08837299 23087,6917.889,95.438,540.874,538.633,0.0
51104.0,STARLINK-3366,PAYLOAD,2022-06-08 13:31:37,15.08838868,0.0001377,53.2147,319.8476,56.742,303.3704,2.1052e-05,4.7e-07,0.0,0 STARLINK-3366,1 51104U 22005A   22159.56362627  .00000047  00000-0  21052-4 0  9991,2 51104  53.2147 319.8476 0001377  56.7420 303.3704 15.08838868 22037,6917.884,95.438,540.701,538.7959999999998,0.0
51104.0,STARLINK-3366,PAYLOAD,2022-06-08 19:53:09,15.08840759,0.0001591,53.2151,318.6602,62.6219,297.4935,5.8064e-05,6.36e-06,0.0,0 STARLINK-3366,1 51104U 22005A   22159.82858394  .00000636  00000-0  58064-4 0  9998,2 51104  53.2151 318.6602 0001591  62.6219 297.4935 15.08840759 22075,6917.878000000002,95.438,540.844,538.6419999999998,0.0
51104.0,STARLINK-3366,PAYLOAD,2022-06-09 13:22:24,15.08838978,0.0001665,53.2147,315.3896,59.3653,300.7503,-7.3095e-05,-1.451e-05,0.0,0 STARLINK-3366,1 51104U 22005A   22160.55723121 -.00001451  00000-0 -73095-4 0  9998,2 51104  53.2147 315.3896 0001665  59.3653 300.7503 15.08838978 22187,6917.884,95.438,540.9,538.597,0.0
51104.0,STARLINK-3366,PAYLOAD,2022-06-09 19:43:57,15.08836171,0.0001903,53.2145,314.2014,54.7421,305.3749,-4.7173e-05,-1.039e-05,0.0,0 STARLINK-3366,1 51104U 22005A   22160.82219190 -.00001039  00000-0 -47173-4 0  9994,2 51104  53.2145 314.2014 0001903  54.7421 305.3749 15.08836171 23336,6917.892,95.438,541.0740000000002,538.441,0.0
51104.0,STARLINK-3366,PAYLOAD,2022-06-10 13:13:11,15.08832796,0.0001341999999999,53.2149,310.9268,57.0015,303.1106,-2.4245e-05,-6.74e-06,0.0,0 STARLINK-3366,1 51104U 22005A   22161.55083323 -.00000674  00000-0 -24245-4 0  9991,2 51104  53.2149 310.9268 0001342  57.0015 303.1106 15.08832796 22337,6917.901999999999,95.438,540.696,538.839,0.0
51104.0,STARLINK-3366,PAYLOAD,2022-06-10 19:34:46,15.08714016,0.0002306,53.2149,309.7382,68.7629,291.3609,0.0014686,0.00023082,0.0,0 STARLINK-3366,1 51104U 22005A   22161.81581658  .00023082  00000-0  14686-2 0  9996,2 51104  53.2149 309.7382 0002306  68.7629 291.3609 15.08714016 22375,6918.265,95.446,541.726,538.535,0.0
51104.0,STARLINK-3366,PAYLOAD,2022-06-11 13:03:58,15.08837565,0.000147,53.215,306.4671,55.8585,304.2546,6.4364e-05,7.36e-06,0.0,0 STARLINK-3366,1 51104U 22005A   22162.54443059  .00000736  00000-0  64364-4 0  9990,2 51104  53.2150 306.4671 0001470  55.8585 304.2546 15.08837565 23595,6917.888000000001,95.438,540.77,538.736,0.0
51104.0,STARLINK-3366,PAYLOAD,2022-06-11 16:14:44,15.08841082,0.0001472,53.2148,305.8721,54.4539,305.659,6.2971e-05,7.14e-06,0.0,0 STARLINK-3366,1 51104U 22005A   22162.67690856  .00000714  00000-0  62971-4 0  9991,2 51104  53.2148 305.8721 0001472  54.4539 305.6590 15.08841082 22500,6917.877,95.437,540.76,538.724,0.0
51104.0,STARLINK-3366,PAYLOAD,2022-06-12 12:54:46,15.08834839,0.0001515,53.2146,302.0058,57.6942,302.4196,5.4237e-05,5.75e-06,0.0,0 STARLINK-3366,1 51104U 22005A   22163.53803470  .00000575  00000-0  54237-4 0  9996,2 51104  53.2146 302.0058 0001515  57.6942 302.4196 15.08834839 22634,6917.896,95.438,540.809,538.7130000000002,0.0
51104.0,STARLINK-3366,PAYLOAD,2022-06-12 16:05:32,15.08837385,0.0001561999999999,53.2144,301.4114,55.3281,304.7859,8.317200000000001e-05,1.036e-05,0.0,0 STARLINK-3366,1 51104U 22005A   22163.67051243  .00001036  00000-0  83172-4 0  9997,2 51104  53.2144 301.4114 0001562  55.3281 304.7859 15.08837385 23766,6917.888000000001,95.438,540.8340000000002,538.673,0.0
51104.0,STARLINK-3366,PAYLOAD,2022-06-13 11:10:09,15.08842366,0.0001551,53.2142,297.8426,60.8298,299.2849,1.7494000000000002e-05,-1e-07,0.0,0 STARLINK-3366,1 51104U 22005A   22164.46539154 -.00000010  00000-0  17494-4 0  9993,2 51104  53.2142 297.8426 0001551  60.8298 299.2849 15.08842366 22777,6917.873000000001,95.437,540.811,538.665,0.0
51104.0,STARLINK-3366,PAYLOAD,2022-06-13 15:56:18,15.08845576,0.0001535,53.2144,296.9507,60.9209,299.1937,5.833e-05,6.41e-06,0.0,0 STARLINK-3366,1 51104U 22005A   22164.66410763  .00000641  00000-0  58330-4 0  9992,2 51104  53.2144 296.9507 0001535  60.9209 299.1937 15.08845576 22801,6917.863,95.437,540.79,538.6659999999998,0.0
51104.0,STARLINK-3366,PAYLOAD,2022-06-14 01:28:37,15.08845885,0.0001357,53.2144,295.1664,71.7775,288.3365,5.3098e-05,5.57e-06,0.0,0 STARLINK-3366,1 51104U 22005A   22165.06154529  .00000557  00000-0  53098-4 0  9994,2 51104  53.2144 295.1664 0001357  71.7775 288.3365 15.08845885 23973,6917.861999999999,95.437,540.6659999999998,538.789,0.0
51104.0,STARLINK-3366,PAYLOAD,2022-06-14 11:00:57,15.08830232,0.000164,53.2143,293.382,60.9898,299.1258,-5.5407e-05,-1.169e-05,0.0,0 STARLINK-3366,1 51104U 22005A   22165.45900030 -.00001169  00000-0 -55407-4 0  9991,2 51104  53.2143 293.3820 0001640  60.9898 299.1258 15.08830232 24036,6917.91,95.438,540.91,538.641,0.0
51104.0,STARLINK-3366,PAYLOAD,2022-06-14 17:22:30,15.08833479,0.0001686999999999,53.2142,292.1925,60.8718,299.2443,-3.6473e-05,-8.68e-06,0.0,0 STARLINK-3366,1 51104U 22005A   22165.72395879 -.00000868  00000-0 -36473-4 0  9997,2 51104  53.2142 292.1925 0001687  60.8718 299.2443 15.08833479 22962,6917.9,95.438,540.932,538.5980000000002,0.0
51104.0,STARLINK-3366,PAYLOAD,2022-06-15 10:51:44,15.08829845,0.0001558,53.2141,288.9204,65.0002,295.1152,-5.982600000000001e-05,-1.24e-05,0.0,0 STARLINK-3366,1 51104U 22005A   22166.45260371 -.00001240  00000-0 -59826-4 0  9998,2 51104  53.2141 288.9204 0001558  65.0002 295.1152 15.08829845 23071,6917.911,95.438,540.854,538.6990000000002,0.0
51104.0,STARLINK-3366,PAYLOAD,2022-06-19 13:25:38,15.08838185,0.000157,53.2158,270.4841,58.9278,301.1868,7.5785e-05,9.18e-06,0.0,0 STARLINK-3366,1 51104U 22005A   22170.55947692  .00000918  00000-0  75785-4 0  9993,2 51104  53.2158 270.4841 0001570  58.9278 301.1868 15.08838185 23699,6917.886,95.438,540.837,538.665,0.0
51104.0,STARLINK-3366,PAYLOAD,2022-06-19 16:36:25,15.08839362,0.0001545,53.2159,269.8897,57.6848,302.4293,5.2813e-05,5.53e-06,0.0,0 STARLINK-3366,1 51104U 22005A   22170.69195679  .00000553  00000-0  52813-4 0  9990,2 51104  53.2159 269.8897 0001545  57.6848 302.4293 15.08839362 23711,6917.882,95.438,540.816,538.679,0.0
51104.0,STARLINK-3366,PAYLOAD,2022-06-20 02:08:44,15.08832796,0.0001509,53.2155,268.105,57.3151,302.7987,1.1635999999999997e-05,-1.03e-06,0.0,0 STARLINK-3366,1 51104U 22005A   22171.08940197 -.00000103  00000-0  11636-4 0  9997,2 51104  53.2155 268.1050 0001509  57.3151 302.7987 15.08832796 24880,6917.901999999999,95.438,540.811,538.7230000000002,0.0
51104.0,STARLINK-3366,PAYLOAD,2022-06-20 10:05:40,15.08827161,0.0001486999999999,53.2157,266.6184,56.4903,303.6231,-3.41e-05,-8.3e-06,0.0,0 STARLINK-3366,1 51104U 22005A   22171.42060870 -.00000830  00000-0 -34100-4 0  9995,2 51104  53.2157 266.6184 0001487  56.4903 303.6231 15.08827161 24931,6917.92,95.438,540.813,538.756,0.0
51104.0,STARLINK-3366,PAYLOAD,2022-06-20 13:16:26,15.08826866,0.0001523,53.2155,266.0236,56.6928,303.421,-3.637e-05,-8.67e-06,0.0,0 STARLINK-3366,1 51104U 22005A   22171.55308991 -.00000867  00000-0 -36370-4 0  9999,2 51104  53.2155 266.0236 0001523  56.6928 303.4210 15.08826866 23846,6917.920999999999,95.438,540.839,538.732,0.0
51104.0,STARLINK-3366,PAYLOAD,2022-06-21 01:59:31,15.08833513,0.0001459,53.2158,263.6442,50.7065,309.4056,-6.8271e-06,-3.97e-06,0.0,0 STARLINK-3366,1 51104U 22005A   22172.08300672 -.00000397  00000-0 -68271-5 0  9990,2 51104  53.2158 263.6442 0001459  50.7065 309.4056 15.08833513 25030,6917.9,95.438,540.775,538.756,0.0
51104.0,STARLINK-3366,PAYLOAD,2022-06-21 13:07:13,15.08838877,0.000149,53.2157,261.5627,51.9126,308.2001,3.7928e-05,3.16e-06,0.0,0 STARLINK-3366,1 51104U 22005A   22172.54668282  .00000316  00000-0  37928-4 0  9998,2 51104  53.2157 261.5627 0001490  51.9126 308.2001 15.08838877 23995,6917.884,95.438,540.78,538.7180000000002,0.0
51104.0,STARLINK-3366,PAYLOAD,2022-06-21 16:17:59,15.08841301,0.000151,53.2156,260.9681,52.184,307.9289,2.9996e-05,1.89e-06,0.0,0 STARLINK-3366,1 51104U 22005A   22172.67916165  .00000189  00000-0  29996-4 0  9992,2 51104  53.2156 260.9681 0001510  52.1840 307.9289 15.08841301 25123,6917.876,95.437,540.786,538.697,0.0
51104.0,STARLINK-3366,PAYLOAD,2022-06-22 01:50:19,15.08830601,0.0001513,53.2155,259.1842,52.9972,307.1158,4.2824e-06,-2.2e-06,0.0,0 STARLINK-3366,1 51104U 22005A   22173.07661011 -.00000220  00000-0  42824-5 0  9997,2 51104  53.2155 259.1842 0001513  52.9972 307.1158 15.08830601 25182,6917.909000000002,95.438,540.821,538.727,0.0
51104.0,STARLINK-3366,PAYLOAD,2022-06-22 11:22:37,15.0883355,0.0001515,53.2156,257.3995,53.8851,306.2281,5.5685e-05,5.98e-06,0.0,0 STARLINK-3366,1 51104U 22005A   22173.47404811  .00000598  00000-0  55685-4 0  9999,2 51104  53.2156 257.3995 0001515  53.8851 306.2281 15.08833550 24137,6917.9,95.438,540.813,538.717,0.0
51104.0,STARLINK-3366,PAYLOAD,2022-06-22 12:58:00,15.08835632,0.000156,53.2153,257.1022,53.2651,306.8484,8.2129e-05,1.019e-05,0.0,0 STARLINK-3366,1 51104U 22005A   22173.54028620  .00001019  00000-0  82129-4 0  9999,2 51104  53.2153 257.1022 0001560  53.2651 306.8484 15.08835632 25253,6917.894,95.438,540.8380000000002,538.68,0.0
51104.0,STARLINK-3366,PAYLOAD,2022-06-23 11:13:24,15.08847257,0.0001612,53.2155,252.9401,45.8187,314.2938,6.458399999999999e-05,7.400000000000001e-06,0.0,0 STARLINK-3366,1 51104U 22005A   22174.46763895  .00000740  00000-0  64584-4 0  9996,2 51104  53.2155 252.9401 0001612  45.8187 314.2938 15.08847257 24283,6917.858,95.437,540.8380000000002,538.6080000000002,0.0
